OBJECT_NAME,OBJECT_ID,EPOCH,MEAN_MOTION,ECCENTRICITY,INCLINATION,RA_OF_ASC_NODE,ARG_OF_PERICENTER,MEAN_ANOMALY,EPHEMERIS_TYPE,CLASSIFICATION_TYPE,NORAD_CAT_ID,ELEMENT_SET_NO,REV_AT_EPOCH,BSTAR,MEAN_MOTION_DOT,MEAN_MOTION_DDOT
SL-14 R/B,1990-018B,2026-07-11T04:18:01.864800,14.82232474,.0017303,82.5221,107.6841,49.2913,310.9801,0,U,20511,999,94087,.25447E-4,.227E-5,0
HST,1990-037B,2026-07-10T11:33:00.150336,15.31028314,.0002021,28.4733,281.3385,60.2686,299.8111,0,U,20580,999,79214,.13247E-3,.4318E-4,0
SL-16 R/B,1990-046B,2026-07-10T23:35:47.919264,14.15022989,.001248,70.9983,38.9709,121.8130,238.4209,0,U,20625,999,86583,.52679E-4,.54E-6,0
COSMOS 2084,1990-055A,2026-07-11T05:28:26.391072,15.06215290,.0007614,62.7902,274.0300,314.4388,45.6089,0,U,20663,999,95492,.86942E-4,.1078E-4,0
SL-6 R/B(2),1990-055D,2026-07-10T23:37:10.361280,15.04076991,.0044462,62.7799,194.3925,8.4250,351.7585,0,U,20666,999,95673,.86525E-4,.1019E-4,0
SL-8 R/B,1990-078B,2026-07-08T21:52:07.419936,14.93408823,.03445479,82.9023,141.9992,324.9410,32.9553,0,U,20775,999,82736,.46254958E-3,.16326E-3,0
SL-8 R/B,1991-006B,2026-07-10T02:36:06.045120,13.77508472,.00236663,82.9416,78.9815,54.0951,103.6954,0,U,21088,999,78092,.38416804E-4,.54E-6,0
OKEAN-3,1991-039A,2026-07-10T16:03:33.460992,15.05419803,.0012122,82.5137,217.6083,271.7604,88.2235,0,U,21397,999,88353,.99681E-4,.146E-4,0
COSMOS 2151,1991-042A,2026-07-11T03:12:47.175840,15.00506814,.0012369,82.4977,324.5699,9.2993,350.8458,0,U,21422,999,88170,.70375E-4,.915E-5,0
SL-14 R/B,1991-042B,2026-07-11T04:34:47.108928,14.81916705,.001662,82.4935,104.3868,190.0863,170.0021,0,U,21423,999,87136,.20414E-4,.185E-5,0
ERS-1,1991-050A,2026-07-11T00:08:23.762112,14.39531082,.0031617,98.7795,213.2854,194.2576,165.7722,0,U,21574,999,83347,.59181E-4,.139E-5,0
ARIANE 40 R/B,1991-050F,2026-07-11T02:39:33.994368,14.42970486,.0004309,98.1864,239.5943,70.3015,289.8641,0,U,21610,999,83679,.50267E-4,.127E-5,0
INTERCOSMOS 25,1991-086A,2026-07-11T01:09:48.417120,12.12236725,.1484369,82.6015,235.3705,210.8759,139.6220,0,U,21819,999,51163,.16036E-3,.819E-5,0
SL-8 R/B,1992-008B,2026-07-09T16:34:31.251936,13.75982559,.00353586,82.9267,177.0557,151.6373,21.7909,0,U,21876,999,72619,.11466993E-3,.127E-5,0
SL-8 R/B,1992-020B,2026-07-11T01:53:17.584800,13.75550288,.0028129,82.9288,62.1094,315.5421,207.8981,0,U,21938,999,71809,.12464E-4,.27E-6,0
USA 81,1992-023A,2026-07-11T02:17:55.303872,14.32404187,.0002157,85.0054,60.2059,66.3770,293.7649,0,U,21949,999,11245,.2914E-4,.99E-6,0
COSMOS 2219,1992-076A,2026-07-09T06:15:18.546912,14.14110057,.00178747,71.0616,123.9288,6.9103,353.2263,0,U,22219,999,73556,-.20471525E-4,-.86E-6,0
SL-16 R/B,1992-076B,2026-07-11T05:43:34.524192,14.16875667,.0014988,71.0007,288.1161,267.1422,119.5351,0,U,22220,999,73933,.1371E-3,.227E-5,0
COSMOS 2221,1992-080A,2026-07-10T11:22:09.230016,14.96595498,.00154312,82.5042,161.4535,134.6920,225.5562,0,U,22236,999,79915,.87475067E-4,.1025E-4,0
SL-16 R/B,1992-093B,2026-07-10T05:02:24.434592,14.15467002,.00025456,71.0224,107.0605,146.2385,213.8900,0,U,22285,999,73049,-.25133283E-4,-.97E-6,0
COSMOS 2228,1992-094A,2026-07-11T04:58:50.901312,14.97668206,.0016104,82.5190,119.0353,243.7234,116.2335,0,U,22286,999,79454,.92547E-4,.1112E-4,0
SL-16 R/B,1993-016B,2026-07-10T08:00:44.989920,14.15311492,.00090116,71.0084,317.5908,146.7754,213.3936,0,U,22566,999,71952,-.8780345E-5,-.65E-6,0
COSMOS 2242,1993-024A,2026-07-11T01:03:49.624704,14.96976668,.0014423,82.5196,148.7177,248.0377,111.9313,0,U,22626,999,79884,.83505E-4,.988E-5,0
SL-16 R/B,1993-059B,2026-07-11T04:55:01.524000,14.17250591,.0016437,70.9906,110.6555,14.5803,345.5791,0,U,22803,999,69703,-.96187E-4,-.243E-5,0
ARIANE 40 R/B,1993-061H,2026-07-11T03:45:11.618208,14.32917542,.0009444,98.4808,258.5143,279.2511,80.7605,0,U,22830,999,71178,.43912E-4,.77E-6,0
COSMOS 2278,1994-023A,2026-07-11T05:19:34.428864,14.14393605,.0009837,71.0529,276.6395,211.6409,148.4124,0,U,23087,999,66227,-.57299E-4,-.157E-5,0
SL-16 R/B,1994-023B,2026-07-10T10:26:54.640896,14.15023929,.00014971,70.9979,173.1077,145.7011,214.4208,0,U,23088,999,66345,-.26038161E-4,-.98E-6,0
SL-16 R/B,1994-074B,2026-07-11T00:19:42.447072,14.79522021,.0006848,97.6985,217.7409,167.0622,214.3995,0,U,23343,999,70548,.34922E-4,.212E-5,0
SL-16 R/B,1994-077B,2026-07-11T03:30:46.554624,14.15575205,.0004071,70.9827,92.7578,306.6686,53.4062,0,U,23405,999,63370,-.11377E-3,-.271E-5,0
ARIANE 40+ R/B,1995-021B,2026-07-11T03:53:26.835360,14.39846184,.0007783,98.4402,261.8896,126.8815,262.7399,0,U,23561,999,63701,.49012E-4,.11E-5,0
SL-16 R/B,1995-058B,2026-07-11T05:31:09.222240,14.15508047,.0014613,71.0214,280.8804,287.9747,71.9783,0,U,23705,999,58533,-.12106E-4,-.71E-6,0
