SL-14 R/B               
1 20511U 90018B   26192.17918825  .00000227  00000+0  25447-4 0  9994
2 20511  82.5221 107.6841 0017303  49.2913 310.9801 14.82232474940877
HST                     
1 20580U 90037B   26191.48125174  .00004318  00000+0  13247-3 0  9990
2 20580  28.4733 281.3385 0002021  60.2686 299.8111 15.31028314792149
SL-16 R/B               
1 20625U 90046B   26191.98319351  .00000054  00000+0  52679-4 0  9993
2 20625  70.9983  38.9709 0012480 121.8130 238.4209 14.15022989865839
COSMOS 2084             
1 20663U 90055A   26192.22808323  .00001078  00000+0  86942-4 0  9992
2 20663  62.7902 274.0300 0007614 314.4388  45.6089 15.06215290954922
SL-6 R/B(2)             
1 20666U 90055D   26191.98414770  .00001019  00000+0  86525-4 0  9998
2 20666  62.7799 194.3925 0044462   8.4250 351.7585 15.04076991956730
SL-8 R/B                
1 20775U 90078B   26189.91119699  .00016326  00000+0  46255-3 0  9998
2 20775  82.9023 141.9992 0344547 324.9410  32.9553 14.93408823827367
SL-8 R/B                
1 21088U 91006B   26191.10840330  .00000054  00000+0  38417-4 0  9998
2 21088  82.9416  78.9815 0023666  54.0951 103.6954 13.77508472780924
OKEAN-3                 
1 21397U 91039A   26191.66913728  .00001460  00000+0  99681-4 0  9992
2 21397  82.5137 217.6083 0012122 271.7604  88.2235 15.05419803883533
COSMOS 2151             
1 21422U 91042A   26192.13387935  .00000915  00000+0  70375-4 0  9996
2 21422  82.4977 324.5699 0012369   9.2993 350.8458 15.00506814881708
SL-14 R/B               
1 21423U 91042B   26192.19082302  .00000185  00000+0  20414-4 0  9991
2 21423  82.4935 104.3868 0016620 190.0863 170.0021 14.81916705871365
ERS-1                   
1 21574U 91050A   26192.00583058  .00000139  00000+0  59181-4 0  9993
2 21574  98.7795 213.2854 0031617 194.2576 165.7722 14.39531082833474
ARIANE 40 R/B           
1 21610U 91050F   26192.11081012  .00000127  00000+0  50267-4 0  9992
2 21610  98.1864 239.5943 0004309  70.3015 289.8641 14.42970486836791
INTERCOSMOS 25          
1 21819U 91086A   26192.04847705  .00000819  00000+0  16036-3 0  9996
2 21819  82.6015 235.3705 1484369 210.8759 139.6220 12.12236725511637
SL-8 R/B                
1 21876U 92008B   26190.69063949  .00000127  00000+0  11467-3 0  9998
2 21876  82.9267 177.0557 0035358 151.6373  21.7909 13.75982559726199
SL-8 R/B                
1 21938U 92020B   26192.07867575  .00000027  00000+0  12464-4 0  9990
2 21938  82.9288  62.1094 0028129 315.5421 207.8981 13.75550288718091
USA 81                  
1 21949U 92023A   26192.09577898  .00000099  00000+0  29140-4 0  9991
2 21949  85.0054  60.2059 0002157  66.3770 293.7649 14.32404187112452
COSMOS 2219             
1 22219U 92076A   26190.26063133 -.00000086  00000+0 -20472-4 0  9996
2 22219  71.0616 123.9288 0017874   6.9103 353.2263 14.14110057735562
SL-16 R/B               
1 22220U 92076B   26192.23859403  .00000227  00000+0  13710-3 0  9991
2 22220  71.0007 288.1161 0014988 267.1422 119.5351 14.16875667739337
COSMOS 2221             
1 22236U 92080A   26191.47371794  .00001025  00000+0  87475-4 0  9997
2 22236  82.5042 161.4535 0015431 134.6920 225.5562 14.96595498799150
SL-16 R/B               
1 22285U 92093B   26191.21000503 -.00000097  00000+0 -25133-4 0  9997
2 22285  71.0224 107.0605 0002545 146.2385 213.8900 14.15467002730497
COSMOS 2228             
1 22286U 92094A   26192.20753358  .00001112  00000+0  92547-4 0  9992
2 22286  82.5190 119.0353 0016104 243.7234 116.2335 14.97668206794545
SL-16 R/B               
1 22566U 93016B   26191.33385405 -.00000065  00000+0 -87803-5 0  9993
2 22566  71.0084 317.5908 0009011 146.7754 213.3936 14.15311492719523
COSMOS 2242             
1 22626U 93024A   26192.04432436  .00000988  00000+0  83505-4 0  9991
2 22626  82.5196 148.7177 0014423 248.0377 111.9313 14.96976668798848
SL-16 R/B               
1 22803U 93059B   26192.20487875 -.00000243  00000+0 -96187-4 0  9997
2 22803  70.9906 110.6555 0016437  14.5803 345.5791 14.17250591697037
ARIANE 40 R/B           
1 22830U 93061H   26192.15638447  .00000077  00000+0  43912-4 0  9998
2 22830  98.4808 258.5143 0009444 279.2511  80.7605 14.32917542711788
COSMOS 2278             
1 23087U 94023A   26192.22192626 -.00000157  00000+0 -57299-4 0  9998
2 23087  71.0529 276.6395 0009837 211.6409 148.4124 14.14393605662277
SL-16 R/B               
1 23088U 94023B   26191.43535464 -.00000098  00000+0 -26038-4 0  9993
2 23088  70.9979 173.1077 0001497 145.7011 214.4208 14.15023929663451
SL-16 R/B               
1 23343U 94074B   26192.01368573  .00000212  00000+0  34922-4 0  9990
2 23343  97.6985 217.7409 0006848 167.0622 214.3995 14.79522021705481
SL-16 R/B               
1 23405U 94077B   26192.14637216 -.00000271  00000+0 -11377-3 0  9994
2 23405  70.9827  92.7578 0004071 306.6686  53.4062 14.15575205633708
ARIANE 40+ R/B          
1 23561U 95021B   26192.16211615  .00000110  00000+0  49012-4 0  9998
2 23561  98.4402 261.8896 0007783 126.8815 262.7399 14.39846184637015
SL-16 R/B               
1 23705U 95058B   26192.22996785 -.00000071  00000+0 -12106-4 0  9995
2 23705  71.0214 280.8804 0014613 287.9747  71.9783 14.15508047585337
